NORAD_CAT_ID,OBJECT_NAME,OBJECT_TYPE,EPOCH,MEAN_MOTION,ECCENTRICITY,INCLINATION,RA_OF_ASC_NODE,ARG_OF_PERICENTER,MEAN_ANOMALY,BSTAR,MEAN_MOTION_DOT,MEAN_MOTION_DDOT,TLE_LINE0,TLE_LINE1,TLE_LINE2,SEMIMAJOR_AXIS,PERIOD,APOGEE,PERIGEE,DECAYED
53778.0,STARLINK-4709,PAYLOAD,2023-10-21 18:48:39,15.08852574,0.0001584,53.217,224.0063,87.4086,272.7087,0.00044619,6.823e-05,0.0,0 STARLINK-4709,1 53778U 22111F   23294.78379343  .00006823  00000-0  44619-3 0  9997,2 53778  53.2170 224.0063 0001584  87.4086 272.7087 15.08852574 61496,6917.842,95.437,540.803,538.611,0.0
53778.0,STARLINK-4709,PAYLOAD,2023-10-22 04:20:57,15.08877374,0.00014,53.2173,222.2224,90.8847,269.2305,0.00075906,0.00011825,0.0,0 STARLINK-4709,1 53778U 22111F   23295.18121774  .00011825  00000-0  75906-3 0  9996,2 53778  53.2173 222.2224 0001400  90.8847 269.2305 15.08877374 61554,6917.766,95.435,540.6,538.663,0.0
53778.0,STARLINK-4709,PAYLOAD,2023-10-22 12:17:53,15.08839206,0.0001556,53.2172,220.7356,96.6835,263.4335,-3.3659e-05,-8.24e-06,0.0,0 STARLINK-4709,1 53778U 22111F   23295.51243029 -.00000824  00000-0 -33659-4 0  9990,2 53778  53.2172 220.7356 0001556  96.6835 263.4335 15.08839206 61602,6917.883,95.438,540.824,538.671,0.0
53778.0,STARLINK-4709,PAYLOAD,2023-10-23 02:36:23,15.08826321,0.0001556,53.2177,218.059,90.3852,269.7318,-3.3127e-05,-8.15e-06,0.0,0 STARLINK-4709,1 53778U 22111F   23296.10860457 -.00000815  00000-0 -33127-4 0  9996,2 53778  53.2177 218.0590 0001556  90.3852 269.7318 15.08826321 61690,6917.922,95.438,540.864,538.711,0.0
53778.0,STARLINK-4709,PAYLOAD,2023-10-23 12:08:41,15.08837692,0.0001475,53.2179,216.2751,100.4384,259.6775,-0.00028183,-4.77e-05,0.0,0 STARLINK-4709,1 53778U 22111F   23296.50603866 -.00004770  00000-0 -28183-3 0  9998,2 53778  53.2179 216.2751 0001475 100.4384 259.6775 15.08837692 61759,6917.887,95.438,540.773,538.732,0.0
53778.0,STARLINK-4709,PAYLOAD,2023-10-24 11:59:29,15.08836937,0.0001677,53.2167,211.8104,115.2707,244.8459,0.00039244,5.963e-05,0.0,0 STARLINK-4709,1 53778U 22111F   23297.49964553  .00005963  00000-0  39244-3 0  9993,2 53778  53.2167 211.8104 0001677 115.2707 244.8459 15.08836937 62719,6917.89,95.438,540.915,538.595,0.0
53778.0,STARLINK-4709,PAYLOAD,2023-10-25 21:22:34,15.08846168,0.0001774,53.2168,205.5692,113.3863,246.7316,0.00017964,2.573e-05,0.0,0 STARLINK-4709,1 53778U 22111F   23298.89068171  .00002573  00000-0  17964-3 0  9998,2 53778  53.2168 205.5692 0001774 113.3863 246.7316 15.08846168 62116,6917.862,95.437,540.954,538.499,0.0
53778.0,STARLINK-4709,PAYLOAD,2023-10-26 03:44:07,15.08848011,0.0001441,53.2166,204.3773,101.3426,258.7728,0.00020596,2.992e-05,0.0,0 STARLINK-4709,1 53778U 22111F   23299.15564117  .00002992  00000-0  20596-3 0  9999,2 53778  53.2166 204.3773 0001441 101.3426 258.7728 15.08848011 62966,6917.856,95.437,540.718,538.724,0.0
53778.0,STARLINK-4709,PAYLOAD,2023-10-26 22:48:44,15.08852168,0.0001537,53.2173,200.8099,98.4867,261.63,0.00023078,3.388e-05,0.0,0 STARLINK-4709,1 53778U 22111F   23299.95051700  .00003388  00000-0  23078-3 0  9994,2 53778  53.2173 200.8099 0001537  98.4867 261.6300 15.08852168 63088,6917.843,95.437,540.771,538.645,0.0
53778.0,STARLINK-4709,PAYLOAD,2023-10-27 03:34:53,15.08865548,0.0001507,53.2173,199.9185,79.1269,280.9893,0.00059545,9.208e-05,0.0,0 STARLINK-4709,1 53778U 22111F   23300.14923231  .00009208  00000-0  59545-3 0  9990,2 53778  53.2173 199.9185 0001507  79.1269 280.9893 15.08865548 62302,6917.802,95.436,540.71,538.625,0.0
53778.0,STARLINK-4709,PAYLOAD,2023-10-27 09:56:26,15.08842351,0.0002189,53.2172,198.7296,97.4791,262.645,4.4764e-05,4.24e-06,0.0,0 STARLINK-4709,1 53778U 22111F   23300.41420017  .00000424  00000-0  44764-4 0  9993,2 53778  53.2172 198.7296 0002189  97.4791 262.6450 15.08842351 62348,6917.873,95.437,541.253,538.224,0.0
53778.0,STARLINK-4709,PAYLOAD,2023-10-27 22:39:31,15.08843291,0.0001634,53.2173,196.3514,106.7307,253.3865,2.076e-05,4.2e-07,0.0,0 STARLINK-4709,1 53778U 22111F   23300.94411684  .00000042  00000-0  20760-4 0  9997,2 53778  53.2173 196.3514 0001634 106.7307 253.3865 15.08843291 63237,6917.87,95.437,540.866,538.605,0.0
53778.0,STARLINK-4709,PAYLOAD,2023-10-28 09:47:13,15.08841595,0.0001143,53.2159,194.2679,86.0563,274.056,2.9882e-05,1.88e-06,0.0,0 STARLINK-4709,1 53778U 22111F   23301.40779720  .00000188  00000-0  29882-4 0  9992,2 53778  53.2159 194.2679 0001143  86.0563 274.0560 15.08841595 63304,6917.876,95.437,540.531,538.95,0.0
53778.0,STARLINK-4709,PAYLOAD,2023-10-28 20:54:56,15.08833279,0.000152,53.218,192.1903,102.6887,257.4275,-0.00015906,-2.818e-05,0.0,0 STARLINK-4709,1 53778U 22111F   23301.87148303 -.00002818  00000-0 -15906-3 0  9995,2 53778  53.2180 192.1903 0001520 102.6887 257.4275 15.08833279 62563,6917.901,95.438,540.817,538.714,0.0
53778.0,STARLINK-4709,PAYLOAD,2023-10-28 22:30:19,15.08833097,0.0001662,53.2178,191.8923,102.149,257.9688,-0.00014363,-2.573e-05,0.0,0 STARLINK-4709,1 53778U 22111F   23301.93772375 -.00002573  00000-0 -14363-3 0  9998,2 53778  53.2178 191.8923 0001662 102.1490 257.9688 15.08833097 63382,6917.901,95.438,540.916,538.617,0.0
53778.0,STARLINK-4709,PAYLOAD,2023-10-29 09:38:01,15.08842083,0.000121,53.2162,189.809,89.9352,270.1778,0.0001634,2.314e-05,0.0,0 STARLINK-4709,1 53778U 22111F   23302.40140212  .00002314  00000-0  16340-3 0  9998,2 53778  53.2162 189.8090 0001210  89.9352 270.1778 15.08842083 63455,6917.874,95.437,540.576,538.902,0.0
53778.0,STARLINK-4709,PAYLOAD,2023-10-29 22:21:06,15.08840955,0.0001562,53.2168,187.4314,94.0131,266.1039,0.00020771,3.019e-05,0.0,0 STARLINK-4709,1 53778U 22111F   23302.93132549  .00003019  00000-0  20771-3 0  9996,2 53778  53.2168 187.4314 0001562  94.0131 266.1039 15.08840955 63536,6917.877,95.437,540.823,538.662,0.0
53778.0,STARLINK-4709,PAYLOAD,2023-10-30 01:31:52,15.08850418,0.0001381,53.2162,186.8364,106.2975,253.8169,0.00036664,5.554e-05,0.0,0 STARLINK-4709,1 53778U 22111F   23303.06380088  .00005554  00000-0  36664-3 0  9998,2 53778  53.2162 186.8364 0001381 106.2975 253.8169 15.08850418 62743,6917.849,95.437,540.669,538.758,0.0
53778.0,STARLINK-4709,PAYLOAD,2023-10-30 09:28:48,15.08842834,0.000165,53.2163,185.3472,81.5024,278.6155,0.00022168,3.242e-05,0.0,0 STARLINK-4709,1 53778U 22111F   23303.39500544  .00003242  00000-0  22168-3 0  9991,2 53778  53.2163 185.3472 0001650  81.5024 278.6155 15.08842834 62795,6917.872,95.437,540.878,538.595,0.0
53778.0,STARLINK-4709,PAYLOAD,2023-10-30 22:11:54,15.08831905,0.000121,53.2161,182.9726,84.9735,275.1395,3.4433e-05,2.6e-06,0.0,0 STARLINK-4709,1 53778U 22111F   23303.92493106  .00000260  00000-0  34433-4 0  9991,2 53778  53.2161 182.9726 0001210  84.9735 275.1395 15.08831905 63680,6917.905,95.438,540.607,538.933,0.0
53778.0,STARLINK-4709,PAYLOAD,2023-10-31 09:19:35,15.08839032,0.0001431,53.2159,180.8896,85.897,274.2186,0.00012234,1.66e-05,0.0,0 STARLINK-4709,1 53778U 22111F   23304.38860885  .00001660  00000-0  12234-3 0  9993,2 53778  53.2159 180.8896 0001431  85.8970 274.2186 15.08839032 63753,6917.883,95.438,540.738,538.758,0.0
53778.0,STARLINK-4709,PAYLOAD,2023-10-31 20:27:17,15.08844673,0.0001365,53.2159,178.8087,83.3109,276.8038,0.00023103,3.391e-05,0.0,0 STARLINK-4709,1 53778U 22111F   23304.85228741  .00003391  00000-0  23103-3 0  9994,2 53778  53.2159 178.8087 0001365  83.3109 276.8038 15.08844673 63015,6917.866,95.437,540.675,538.787,0.0
53778.0,STARLINK-4709,PAYLOAD,2023-10-31 22:02:40,15.08847381,0.0001395,53.2163,178.5101,89.0909,271.0243,0.00025614,3.792e-05,0.0,0 STARLINK-4709,1 53778U 22111F   23304.91852702  .00003792  00000-0  25614-3 0  9995,2 53778  53.2163 178.5101 0001395  89.0909 271.0243 15.08847381 63832,6917.858,95.437,540.688,538.758,0.0
53778.0,STARLINK-4709,PAYLOAD,2023-11-01 09:10:22,15.08850061,0.000123,53.2157,176.4289,89.5224,270.5909,0.00036566,5.538e-05,0.0,0 STARLINK-4709,1 53778U 22111F   23305.38220475  .00005538  00000-0  36566-3 0  9991,2 53778  53.2157 176.4289 0001230  89.5224 270.5909 15.08850061 63902,6917.85,95.437,540.566,538.864,0.0
53778.0,STARLINK-4709,PAYLOAD,2023-11-01 20:18:04,15.08843048,0.0001591,53.2156,174.3476,94.7931,265.3243,0.00019233,2.774e-05,0.0,0 STARLINK-4709,1 53778U 22111F   23305.84588788  .00002774  00000-0  19233-3 0  9997,2 53778  53.2156 174.3476 0001591  94.7931 265.3243 15.08843048 63167,6917.871,95.437,540.837,538.635,0.0
53778.0,STARLINK-4709,PAYLOAD,2023-11-01 21:53:27,15.0884389,0.0001652,53.2154,174.0497,96.2812,263.8368,0.00019921,2.884e-05,0.0,0 STARLINK-4709,1 53778U 22111F   23305.91212741  .00002884  00000-0  19921-3 0  9994,2 53778  53.2154 174.0497 0001652  96.2812 263.8368 15.08843890 63984,6917.868,95.437,540.876,538.591,0.0
53778.0,STARLINK-4709,PAYLOAD,2023-11-02 01:04:13,15.08846868,0.0001682,53.2157,173.4549,97.2533,262.865,0.00019212,2.771e-05,0.0,0 STARLINK-4709,1 53778U 22111F   23306.04460566  .00002771  00000-0  19212-3 0  9997,2 53778  53.2157 173.4549 0001682  97.2533 262.8650 15.08846868 64007,6917.859,95.437,540.888,538.561,0.0
53778.0,STARLINK-4709,PAYLOAD,2023-11-02 21:44:15,15.088274,0.0001394,53.2163,169.59,84.6034,275.5118,-8.6091e-05,-1.657e-05,0.0,0 STARLINK-4709,1 53778U 22111F   23306.90573861 -.00001657  00000-0 -86091-4 0  9999,2 53778  53.2163 169.5900 0001394  84.6034 275.5118 15.08827400 63322,6917.919,95.438,540.748,538.82,0.0
53778.0,STARLINK-4709,PAYLOAD,2023-11-03 21:35:02,15.08849601,0.0001522,53.2161,165.1298,84.9514,275.1652,0.00058148,8.981e-05,0.0,0 STARLINK-4709,1 53778U 22111F   23307.89933860  .00008981  00000-0  58148-3 0  9993,2 53778  53.2161 165.1298 0001522  84.9514 275.1652 15.08849601 63473,6917.851,95.437,540.769,538.663,0.0
53778.0,STARLINK-4709,PAYLOAD,2023-11-04 07:07:21,15.08850099,0.0001596,53.2158,163.3461,84.4677,275.6497,0.00048456,7.434e-05,0.0,0 STARLINK-4709,1 53778U 22111F   23308.29677845  .00007434  00000-0  48456-3 0  9999,2 53778  53.2158 163.3461 0001596  84.4677 275.6497 15.08850099 64349,6917.85,95.437,540.819,538.61,0.0
